STARLINK-1332
1 15579C 20025BA  21326.16487791  .00008963  00000-0  60043-3 0  3262
2 15579  53.0523 238.0007 0005573  57.6221  94.5107 15.06382963    13
